[{"OBJECT_NAME":"STARLINK-34087","OBJECT_ID":"2025-102C","EPOCH":"2026-03-09T13:10:45.494688","MEAN_MOTION":14.98330478,"ECCENTRICITY":0.00033669,"INCLINATION":70.001,"RA_OF_ASC_NODE":114.7097,"ARG_OF_PERICENTER":269.4069,"MEAN_ANOMALY":90.6704,"EPHEMERIS_TYPE":0,"CLASSIFICATION_TYPE":"U","NORAD_CAT_ID":64024,"ELEMENT_SET_NO":999,"REV_AT_EPOCH":4582,"BSTAR":4.3702647e-5,"MEAN_MOTION_DOT":4.28e-6,"MEAN_MOTION_DDOT":0},{"OBJECT_NAME":"SL-16 DEB","OBJECT_ID":"1992-093L","EPOCH":"2026-03-09T13:43:05.820096","MEAN_MOTION":14.92566733,"ECCENTRICITY":0.00224926,"INCLINATION":70.8231,"RA_OF_ASC_NODE":106.9008,"ARG_OF_PERICENTER":139.8913,"MEAN_ANOMALY":15.7142,"EPHEMERIS_TYPE":0,"CLASSIFICATION_TYPE":"U","NORAD_CAT_ID":22296,"ELEMENT_SET_NO":999,"REV_AT_EPOCH":72300,"BSTAR":0.0028358785,"MEAN_MOTION_DOT":0.00029386,"MEAN_MOTION_DDOT":0}]
